NORAD_CAT_ID,OBJECT_NAME,OBJECT_TYPE,EPOCH,MEAN_MOTION,ECCENTRICITY,INCLINATION,RA_OF_ASC_NODE,ARG_OF_PERICENTER,MEAN_ANOMALY,BSTAR,MEAN_MOTION_DOT,MEAN_MOTION_DDOT,TLE_LINE0,TLE_LINE1,TLE_LINE2,SEMIMAJOR_AXIS,PERIOD,APOGEE,PERIGEE,DECAYED
49750.0,STARLINK-3236,PAYLOAD,2023-07-04 02:28:35,15.08830348,9.49e-05,53.2163,226.6665,89.4171,270.693,0.00016313,2.309e-05,0.0,0 STARLINK-3236,1 49750U 21115AC  23185.10318852  .00002309  00000-0  16313-3 0  9993,2 49750  53.2163 226.6665 0000949  89.4171 270.6930 15.08830348 88768,6917.91,95.438,540.431,539.118,0.0
49750.0,STARLINK-3236,PAYLOAD,2023-07-04 15:11:40,15.08842356,9.25e-05,53.2162,224.2874,85.7025,274.4073,7.9676e-05,9.81e-06,0.0,0 STARLINK-3236,1 49750U 21115AC  23185.63310377  .00000981  00000-0  79676-4 0  9991,2 49750  53.2162 224.2874 0000925  85.7025 274.4073 15.08842356 88845,6917.873,95.437,540.378,539.098,0.0
49750.0,STARLINK-3236,PAYLOAD,2023-07-05 19:48:36,15.08840835,8.99e-05,53.2161,218.9343,94.2263,265.8832,9.4279e-06,-1.38e-06,0.0,0 STARLINK-3236,1 49750U 21115AC  23186.82542626 -.00000138  00000-0  94279-5 0  9999,2 49750  53.2161 218.9343 0000899  94.2263 265.8832 15.08840835 89022,6917.878,95.438,540.365,539.121,0.0
49750.0,STARLINK-3236,PAYLOAD,2023-07-07 03:36:19,15.08840492,9.27e-05,53.2162,212.9879,78.6679,281.4417,8.9046e-05,1.13e-05,0.0,0 STARLINK-3236,1 49750U 21115AC  23188.15022562  .00001130  00000-0  89046-4 0  9996,2 49750  53.2162 212.9879 0000927  78.6679 281.4417 15.08840492 89224,6917.879,95.438,540.385,539.103,0.0
49750.0,STARLINK-3236,PAYLOAD,2023-07-08 08:13:15,15.08841183,9.59e-05,53.2161,207.6346,79.0638,281.0462,5.5628e-05,5.98e-06,0.0,0 STARLINK-3236,1 49750U 21115AC  23189.34254619  .00000598  00000-0  55628-4 0  9994,2 49750  53.2161 207.6346 0000959  79.0638 281.0462 15.08841183 89402,6917.877,95.437,540.405,539.078,0.0
49750.0,STARLINK-3236,PAYLOAD,2023-07-09 00:07:07,15.08834844,9.93e-05,53.2164,204.661,75.1729,284.9373,-9.8752e-06,-4.45e-06,0.0,0 STARLINK-3236,1 49750U 21115AC  23190.00495267 -.00000445  00000-0 -98752-5 0  9994,2 49750  53.2164 204.6610 0000993  75.1729 284.9373 15.08834844 89502,6917.896,95.438,540.448,539.074,0.0
49750.0,STARLINK-3236,PAYLOAD,2023-07-10 09:30:13,15.08837418,9.46e-05,53.2159,198.4167,73.444,286.6656,3.7801e-05,3.14e-06,0.0,0 STARLINK-3236,1 49750U 21115AC  23191.39599276  .00000314  00000-0  37801-4 0  9992,2 49750  53.2159 198.4167 0000946  73.4440 286.6656 15.08837418 89718,6917.888,95.438,540.408,539.099,0.0
49750.0,STARLINK-3236,PAYLOAD,2023-07-11 17:17:56,15.08838712,9.52e-05,53.216,192.4695,75.4703,284.6395,6.9625e-05,8.2e-06,0.0,0 STARLINK-3236,1 49750U 21115AC  23192.72079281  .00000820  00000-0  69625-4 0  9990,2 49750  53.2160 192.4695 0000952  75.4703 284.6395 15.08838712 89919,6917.884,95.438,540.408,539.091,0.0
49750.0,STARLINK-3236,PAYLOAD,2023-07-13 16:59:30,15.08840642,0.0001081,53.2163,183.5484,76.8783,283.233,1.8852e-05,1.2e-07,0.0,0 STARLINK-3236,1 49750U 21115AC  23194.70799200  .00000012  00000-0  18852-4 0  9999,2 49750  53.2163 183.5484 0001081  76.8783 283.2330 15.08840642 90210,6917.878,95.438,540.491,538.996,0.0
49750.0,STARLINK-3236,PAYLOAD,2023-07-15 02:22:36,15.08841327,0.0001104,53.2161,177.3039,81.4403,278.6714,2.2091e-05,6.4e-07,0.0,0 STARLINK-3236,1 49750U 21115AC  23196.09903149  .00000064  00000-0  22091-4 0  9999,2 49750  53.2161 177.3039 0001104  81.4403 278.6714 15.08841327 90420,6917.876,95.437,540.505,538.978,0.0
49750.0,STARLINK-3236,PAYLOAD,2023-07-16 05:24:10,15.08835229,0.0001151,53.2166,172.2494,87.0711,273.0413,1.5071e-05,-4.8e-07,0.0,0 STARLINK-3236,1 49750U 21115AC  23197.22511722 -.00000048  00000-0  15071-4 0  9990,2 49750  53.2166 172.2494 0001151  87.0711 273.0413 15.08835229 90597,6917.895,95.438,540.556,538.964,0.0
49750.0,STARLINK-3236,PAYLOAD,2023-07-17 08:25:43,15.08842376,0.0001189,53.2173,167.194,85.8403,274.2725,6.3453e-05,7.22e-06,0.0,0 STARLINK-3236,1 49750U 21115AC  23198.35119446  .00000722  00000-0  63453-4 0  9997,2 49750  53.2173 167.1940 0001189  85.8403 274.2725 15.08842376 90768,6917.873,95.437,540.561,538.916,0.0
49750.0,STARLINK-3236,PAYLOAD,2023-07-18 09:51:53,15.08845355,0.0001226,53.2175,162.4363,88.5391,271.5741,0.00013002,1.782e-05,0.0,0 STARLINK-3236,1 49750U 21115AC  23199.41103286  .00001782  00000-0  13002-3 0  9991,2 49750  53.2175 162.4363 0001226  88.5391 271.5741 15.08845355 90921,6917.864,95.437,540.577,538.881,0.0
49750.0,STARLINK-3236,PAYLOAD,2023-07-19 01:45:45,15.0883755,0.0001447,53.2163,159.4611,78.5353,281.5801,5.4849e-05,5.85e-06,0.0,0 STARLINK-3236,1 49750U 21115AC  23200.07344170  .00000585  00000-0  54849-4 0  9990,2 49750  53.2163 159.4611 0001447  78.5353 281.5801 15.08837550 91020,6917.888,95.438,540.754,538.752,0.0
49750.0,STARLINK-3236,PAYLOAD,2023-07-19 09:42:40,15.0884525,0.0001207,53.2173,157.9755,87.1756,272.9374,5.345e-05,5.63e-06,0.0,0 STARLINK-3236,1 49750U 21115AC  23200.40463629  .00000563  00000-0  53450-4 0  9991,2 49750  53.2173 157.9755 0001207  87.1756 272.9374 15.08845250 91070,6917.864,95.437,540.564,538.894,0.0
49750.0,STARLINK-3236,PAYLOAD,2023-07-20 23:51:56,15.08837931,0.0001234,53.2165,150.8396,89.2856,270.8277,2.2439e-05,6.9e-07,0.0,0 STARLINK-3236,1 49750U 21115AC  23201.99440466  .00000069  00000-0  22439-4 0  9994,2 49750  53.2165 150.8396 0001234  89.2856 270.8277 15.08837931 91311,6917.887,95.438,540.605,538.898,0.0
49750.0,STARLINK-3236,PAYLOAD,2023-07-23 23:24:18,15.08838317,0.0001277,53.217,137.4569,93.0078,267.106,-1.1806e-05,-4.76e-06,0.0,0 STARLINK-3236,1 49750U 21115AC  23204.97521012 -.00000476  00000-0 -11806-4 0  9992,2 49750  53.2170 137.4569 0001277  93.0078 267.1060 15.08838317 90650,6917.886,95.438,540.634,538.867,0.0
49750.0,STARLINK-3236,PAYLOAD,2023-07-25 05:36:37,15.08839367,0.0001315,53.2178,131.8069,92.3918,267.7225,0.00011886,1.604e-05,0.0,0 STARLINK-3236,1 49750U 21115AC  23206.23376923  .00001604  00000-0  11886-3 0  9991,2 49750  53.2178 131.8069 0001315  92.3918 267.7225 15.08839367 90845,6917.882,95.438,540.657,538.838,0.0
49750.0,STARLINK-3236,PAYLOAD,2023-07-26 03:52:01,15.08839367,0.0001227,53.218,127.6453,86.5538,273.5595,7.6128e-05,9.24e-06,0.0,0 STARLINK-3236,1 49750U 21115AC  23207.16113143  .00000924  00000-0  76128-4 0  9992,2 49750  53.2180 127.6453 0001227  86.5538 273.5595 15.08839367 90983,6917.882,95.438,540.596,538.898,0.0
49750.0,STARLINK-3236,PAYLOAD,2023-07-27 00:32:02,15.0884703,0.0001233,53.2164,123.7798,93.341,266.7723,4.7662e-05,4.71e-06,0.0,0 STARLINK-3236,1 49750U 21115AC  23208.02224555  .00000471  00000-0  47662-4 0  9996,2 49750  53.2164 123.7798 0001233  93.3410 266.7723 15.08847030 92228,6917.859,95.437,540.577,538.871,0.0
49750.0,STARLINK-3236,PAYLOAD,2023-07-28 00:22:50,15.08830707,0.0001191,53.2172,119.3174,87.0852,273.0276,-0.00010225,-1.914e-05,0.0,0 STARLINK-3236,1 49750U 21115AC  23209.01586287 -.00001914  00000-0 -10225-3 0  9998,2 49750  53.2172 119.3174 0001191  87.0852 273.0276 15.08830707 92372,6917.909,95.438,540.598,538.95,0.0
49750.0,STARLINK-3236,PAYLOAD,2023-07-29 00:13:36,15.08854001,0.0001364,53.2177,114.8582,86.1362,273.9786,7.8828e-05,9.67e-06,0.0,0 STARLINK-3236,1 49750U 21115AC  23210.00944562  .00000967  00000-0  78828-4 0  9992,2 49750  53.2177 114.8582 0001364  86.1362 273.9786 15.08854001 92523,6917.838,95.437,540.646,538.759,0.0
49750.0,STARLINK-3236,PAYLOAD,2023-07-30 00:04:23,15.0884344,0.0001339,53.2179,110.3984,84.9368,275.1777,0.00019673,2.845e-05,0.0,0 STARLINK-3236,1 49750U 21115AC  23211.00305194  .00002845  00000-0  19673-3 0  9994,2 49750  53.2179 110.3984 0001339  84.9368 275.1777 15.08843440 92671,6917.87,95.437,540.661,538.809,0.0
49750.0,STARLINK-3236,PAYLOAD,2023-07-31 01:30:33,15.08845848,0.0001244,53.2167,105.6403,88.0487,272.0648,-1.3133e-05,-4.97e-06,0.0,0 STARLINK-3236,1 49750U 21115AC  23212.06289055 -.00000497  00000-0 -13133-4 0  9997,2 49750  53.2167 105.6403 0001244  88.0487 272.0648 15.08845848 92838,6917.863,95.437,540.588,538.867,0.0
49750.0,STARLINK-3236,PAYLOAD,2023-07-31 17:24:25,15.08832962,0.0001402,53.2177,102.6711,107.6226,252.4919,4.0431e-06,-2.24e-06,0.0,0 STARLINK-3236,1 49750U 21115AC  23212.72529923 -.00000224  00000-0  40431-5 0  9990,2 49750  53.2177 102.6711 0001402 107.6226 252.4919 15.08832962 92930,6917.902,95.438,540.737,538.797,0.0
49750.0,STARLINK-3236,PAYLOAD,2023-08-01 15:39:49,15.0884056,0.0001304,53.2182,98.5074,92.7475,267.3667,0.00013439,1.852e-05,0.0,0 STARLINK-3236,1 49750U 21115AC  23213.65265749  .00001852  00000-0  13439-3 0  9999,2 49750  53.2182  98.5074 0001304  92.7475 267.3667 15.08840560 93076,6917.879,95.438,540.646,538.842,0.0
49750.0,STARLINK-3236,PAYLOAD,2023-08-03 01:02:55,15.08849888,0.0001211,53.2177,92.2586,80.6173,279.4956,0.00013195,1.813e-05,0.0,0 STARLINK-3236,1 49750U 21115AC  23215.04369452  .00001813  00000-0  13195-3 0  9996,2 49750  53.2177  92.2586 0001211  80.6173 279.4956 15.08849888 93287,6917.85,95.437,540.553,538.877,0.0
49750.0,STARLINK-3236,PAYLOAD,2023-08-04 00:53:42,15.08839599,0.0001256,53.2179,87.7983,73.6007,286.5124,1.9123e-05,1.6e-07,0.0,0 STARLINK-3236,1 49750U 21115AC  23216.03730266  .00000016  00000-0  19123-4 0  9993,2 49750  53.2179  87.7983 0001256  73.6007 286.5124 15.08839599 93437,6917.882,95.438,540.616,538.878,0.0
49750.0,STARLINK-3236,PAYLOAD,2023-08-04 23:09:06,15.08848976,0.0001106,53.2172,83.6343,79.5099,280.6018,0.00015097,2.116e-05,0.0,0 STARLINK-3236,1 49750U 21115AC  23216.96465890  .00002116  00000-0  15097-3 0  9991,2 49750  53.2172  83.6343 0001106  79.5099 280.6018 15.08848976 93576,6917.853,95.437,540.483,538.953,0.0
49750.0,STARLINK-3236,PAYLOAD,2023-08-06 00:35:16,15.08857117,0.0001049,53.2173,78.875,92.0805,268.0307,0.00034863,5.268e-05,0.0,0 STARLINK-3236,1 49750U 21115AC  23218.02449247  .00005268  00000-0  34863-3 0  9991,2 49750  53.2173  78.8750 0001049  92.0805 268.0307 15.08857117 93732,6917.828,95.436,540.419,538.967,0.0
